start=new Date('2023-01-11T00:00:00.000Z').valueOf();
sats=[{"GP_ID":"222724349","PERIOD":"91.270","FILE":"3739267","PERIAPSIS":"335.736","ELEMENT_SET_NO":"999","OBJECT_TYPE":"PAYLOAD","TIME_SYSTEM":"UTC","ARG_OF_PERICENTER":"245.6540","TLE_LINE1":"1 54830U 22177L   23010.91667824 -.01069955  00000-0 -68700-2 0  9998","LAUNCH_DATE":"2022-12-28","COUNTRY_CODE":"US","CLASSIFICATION_TYPE":"U","OBJECT_NAME":"STARLINK-5394","APOAPSIS":"337.975","SEMIMAJOR_AXIS":"6714.991","OBJECT_ID":"2022-177L","MEAN_MOTION":"15.77737125","SITE":"AFETR","MEAN_MOTION_DOT":"-0.01069955","EPHEMERIS_TYPE":"0","NORAD_CAT_ID":"54830","MEAN_ELEMENT_THEORY":"SGP4","REV_AT_EPOCH":"130","RCS_SIZE":"MEDIUM","EPOCH":"2023-01-10T22:00:00.999936","MEAN_ANOMALY":"55.0853","TLE_LINE2":"2 54830  42.9995 293.4576 0001667 245.6540  55.0853 15.77737125  1307","REF_FRAME":"TEME","DECAY_DATE":null,"BSTAR":"-0.00687000000000","MEAN_MOTION_DDOT":"0.0000000000000","CENTER_NAME":"EARTH","ECCENTRICITY":"0.00016670","INCLINATION":"42.9995","RA_OF_ASC_NODE":"293.4576"},{"OBJECT_ID":"2022-177M","SEMIMAJOR_AXIS":"6715.175","APOAPSIS":"338.106","OBJECT_NAME":"STARLINK-5395","TLE_LINE1":"1 54831U 22177M   23010.91667824 -.01060071  00000-0 -68199-2 0  9991","ARG_OF_PERICENTER":"244.9215","COUNTRY_CODE":"US","CLASSIFICATION_TYPE":"U","LAUNCH_DATE":"2022-12-28","OBJECT_TYPE":"PAYLOAD","ELEMENT_SET_NO":"999","TIME_SYSTEM":"UTC","PERIOD":"91.274","GP_ID":"222723675","PERIAPSIS":"335.975","FILE":"3739267","CENTER_NAME":"EARTH","MEAN_MOTION_DDOT":"0.0000000000000","RA_OF_ASC_NODE":"293.4644","INCLINATION":"42.9996","ECCENTRICITY":"0.00015870","BSTAR":"-0.00681990000000","DECAY_DATE":null,"REF_FRAME":"TEME","TLE_LINE2":"2 54831  42.9996 293.4644 0001587 244.9215  53.4197 15.77672040  1304","MEAN_ANOMALY":"53.4197","EPOCH":"2023-01-10T22:00:00.999936","RCS_SIZE":"MEDIUM","MEAN_MOTION_DOT":"-0.01060071","EPHEMERIS_TYPE":"0","SITE":"AFETR","MEAN_MOTION":"15.77672040","REV_AT_EPOCH":"130","MEAN_ELEMENT_THEORY":"SGP4","NORAD_CAT_ID":"54831"},{"TIME_SYSTEM":"UTC","OBJECT_TYPE":"PAYLOAD","ELEMENT_SET_NO":"999","PERIAPSIS":"335.897","FILE":"3739267","PERIOD":"91.271","GP_ID":"222723440","OBJECT_NAME":"STARLINK-5393","APOAPSIS":"337.891","OBJECT_ID":"2022-177N","SEMIMAJOR_AXIS":"6715.029","LAUNCH_DATE":"2022-12-28","CLASSIFICATION_TYPE":"U","COUNTRY_CODE":"US","ARG_OF_PERICENTER":"272.6880","TLE_LINE1":"1 54832U 22177N   23010.91667824 -.01040110  00000-0 -66625-2 0  9996","REF_FRAME":"TEME","TLE_LINE2":"2 54832  42.9997 293.4566 0001485 272.6880  28.5723 15.77723615  1305","RCS_SIZE":"MEDIUM","EPOCH":"2023-01-10T22:00:00.999936","MEAN_ANOMALY":"28.5723","REV_AT_EPOCH":"130","NORAD_CAT_ID":"54832","MEAN_ELEMENT_THEORY":"SGP4","SITE":"AFETR","EPHEMERIS_TYPE":"0","MEAN_MOTION_DOT":"-0.01040110","MEAN_MOTION":"15.77723615","RA_OF_ASC_NODE":"293.4566","ECCENTRICITY":"0.00014850","INCLINATION":"42.9997","MEAN_MOTION_DDOT":"0.0000000000000","CENTER_NAME":"EARTH","BSTAR":"-0.00666250000000","DECAY_DATE":null},{"TLE_LINE1":"1 54833U 22177P   23010.91667824 -.01047780  00000-0 -67204-2 0  9991","ARG_OF_PERICENTER":"249.3922","CLASSIFICATION_TYPE":"U","COUNTRY_CODE":"US","LAUNCH_DATE":"2022-12-28","OBJECT_ID":"2022-177P","SEMIMAJOR_AXIS":"6715.064","OBJECT_NAME":"STARLINK-5391","APOAPSIS":"337.989","GP_ID":"222724575","PERIOD":"91.271","PERIAPSIS":"335.869","FILE":"3739267","OBJECT_TYPE":"PAYLOAD","ELEMENT_SET_NO":"999","TIME_SYSTEM":"UTC","DECAY_DATE":null,"BSTAR":"-0.00672040000000","CENTER_NAME":"EARTH","MEAN_MOTION_DDOT":"0.0000000000000","INCLINATION":"42.9995","ECCENTRICITY":"0.00015780","RA_OF_ASC_NODE":"293.4594","MEAN_MOTION":"15.77711270","MEAN_MOTION_DOT":"-0.01047780","EPHEMERIS_TYPE":"0","SITE":"AFETR","NORAD_CAT_ID":"54833","MEAN_ELEMENT_THEORY":"SGP4","REV_AT_EPOCH":"130","MEAN_ANOMALY":"50.8584","RCS_SIZE":"MEDIUM","EPOCH":"2023-01-10T22:00:00.999936","REF_FRAME":"TEME","TLE_LINE2":"2 54833  42.9995 293.4594 0001578 249.3922  50.8584 15.77711270  1303"},{"REF_FRAME":"TEME","TLE_LINE2":"2 54834  42.9996 293.4554 0001542 251.9198  49.7814 15.77737400  1302","EPOCH":"2023-01-10T22:00:00.999936","RCS_SIZE":"MEDIUM","MEAN_ANOMALY":"49.7814","SITE":"AFETR","EPHEMERIS_TYPE":"0","MEAN_MOTION_DOT":"-0.01037232","MEAN_MOTION":"15.77737400","REV_AT_EPOCH":"130","MEAN_ELEMENT_THEORY":"SGP4","NORAD_CAT_ID":"54834","MEAN_MOTION_DDOT":"0.0000000000000","CENTER_NAME":"EARTH","RA_OF_ASC_NODE":"293.4554","ECCENTRICITY":"0.00015420","INCLINATION":"42.9996","BSTAR":"-0.00663780000000","DECAY_DATE":null,"ELEMENT_SET_NO":"999","OBJECT_TYPE":"PAYLOAD","TIME_SYSTEM":"UTC","PERIOD":"91.270","GP_ID":"222724796","PERIAPSIS":"335.819","FILE":"3739267","APOAPSIS":"337.890","OBJECT_NAME":"STARLINK-5386","OBJECT_ID":"2022-177Q","SEMIMAJOR_AXIS":"6714.990","ARG_OF_PERICENTER":"251.9198","TLE_LINE1":"1 54834U 22177Q   23010.91667824 -.01037232  00000-0 -66378-2 0  9994","LAUNCH_DATE":"2022-12-28","CLASSIFICATION_TYPE":"U","COUNTRY_CODE":"US"},{"MEAN_ELEMENT_THEORY":"SGP4","NORAD_CAT_ID":"54835","REV_AT_EPOCH":"130","MEAN_MOTION":"15.77737588","SITE":"AFETR","EPHEMERIS_TYPE":"0","MEAN_MOTION_DOT":"-0.01103604","EPOCH":"2023-01-10T22:00:00.999936","RCS_SIZE":"MEDIUM","MEAN_ANOMALY":"49.4308","TLE_LINE2":"2 54835  42.9996 293.4601 0001516 250.3499  49.4308 15.77737588  1306","REF_FRAME":"TEME","DECAY_DATE":null,"BSTAR":"-0.00711110000000","ECCENTRICITY":"0.00015160","INCLINATION":"42.9996","RA_OF_ASC_NODE":"293.4601","MEAN_MOTION_DDOT":"0.0000000000000","CENTER_NAME":"EARTH","PERIAPSIS":"335.836","FILE":"3739267","GP_ID":"222723213","PERIOD":"91.270","TIME_SYSTEM":"UTC","ELEMENT_SET_NO":"999","OBJECT_TYPE":"PAYLOAD","LAUNCH_DATE":"2022-12-28","CLASSIFICATION_TYPE":"U","COUNTRY_CODE":"US","ARG_OF_PERICENTER":"250.3499","TLE_LINE1":"1 54835U 22177R   23010.91667824 -.01103604  00000-0 -71111-2 0  9993","OBJECT_NAME":"STARLINK-5389","APOAPSIS":"337.872","OBJECT_ID":"2022-177R","SEMIMAJOR_AXIS":"6714.989"},{"DECAY_DATE":null,"BSTAR":"-0.00693630000000","CENTER_NAME":"EARTH","MEAN_MOTION_DDOT":"0.0000000000000","INCLINATION":"42.9996","ECCENTRICITY":"0.00015460","RA_OF_ASC_NODE":"293.4526","MEAN_MOTION":"15.77788739","MEAN_MOTION_DOT":"-0.01081463","EPHEMERIS_TYPE":"0","SITE":"AFETR","MEAN_ELEMENT_THEORY":"SGP4","NORAD_CAT_ID":"54836","REV_AT_EPOCH":"130","MEAN_ANOMALY":"52.6880","EPOCH":"2023-01-10T22:00:00.999936","RCS_SIZE":"MEDIUM","REF_FRAME":"TEME","TLE_LINE2":"2 54836  42.9996 293.4526 0001546 249.9899  52.6880 15.77788739  1309","TLE_LINE1":"1 54836U 22177S   23010.91667824 -.01081463  00000-0 -69363-2 0  9998","ARG_OF_PERICENTER":"249.9899","COUNTRY_CODE":"US","CLASSIFICATION_TYPE":"U","LAUNCH_DATE":"2022-12-28","SEMIMAJOR_AXIS":"6714.844","OBJECT_ID":"2022-177S","OBJECT_NAME":"STARLINK-5384","APOAPSIS":"337.747","GP_ID":"222723903","PERIOD":"91.267","FILE":"3739267","PERIAPSIS":"335.671","ELEMENT_SET_NO":"999","OBJECT_TYPE":"PAYLOAD","TIME_SYSTEM":"UTC"},{"ARG_OF_PERICENTER":"244.4428","TLE_LINE1":"1 54837U 22177T   23010.91667824 -.01069029  00000-0 -68528-2 0  9995","LAUNCH_DATE":"2022-12-28","COUNTRY_CODE":"US","CLASSIFICATION_TYPE":"U","APOAPSIS":"337.907","OBJECT_NAME":"STARLINK-5369","OBJECT_ID":"2022-177T","SEMIMAJOR_AXIS":"6714.895","GP_ID":"222724129","PERIOD":"91.268","FILE":"3739267","PERIAPSIS":"335.613","ELEMENT_SET_NO":"999","OBJECT_TYPE":"PAYLOAD","TIME_SYSTEM":"UTC","DECAY_DATE":null,"BSTAR":"-0.00685280000000","MEAN_MOTION_DDOT":"0.0000000000000","CENTER_NAME":"EARTH","ECCENTRICITY":"0.00017080","INCLINATION":"42.9997","RA_OF_ASC_NODE":"293.4542","MEAN_MOTION":"15.77770864","SITE":"AFETR","MEAN_MOTION_DOT":"-0.01069029","EPHEMERIS_TYPE":"0","NORAD_CAT_ID":"54837","MEAN_ELEMENT_THEORY":"SGP4","REV_AT_EPOCH":"130","RCS_SIZE":"MEDIUM","EPOCH":"2023-01-10T22:00:00.999936","MEAN_ANOMALY":"57.7344","REF_FRAME":"TEME","TLE_LINE2":"2 54837  42.9997 293.4542 0001708 244.4428  57.7344 15.77770864  1308"},{"SEMIMAJOR_AXIS":"6714.825","OBJECT_ID":"2022-177U","OBJECT_NAME":"STARLINK-5372","APOAPSIS":"337.697","COUNTRY_CODE":"US","CLASSIFICATION_TYPE":"U","LAUNCH_DATE":"2022-12-28","TLE_LINE1":"1 54838U 22177U   23010.91667824 -.01059943  00000-0 -67813-2 0  9996","ARG_OF_PERICENTER":"251.1706","TIME_SYSTEM":"UTC","OBJECT_TYPE":"PAYLOAD","ELEMENT_SET_NO":"999","PERIAPSIS":"335.684","FILE":"3739267","GP_ID":"222724350","PERIOD":"91.267","INCLINATION":"42.9993","ECCENTRICITY":"0.00014990","RA_OF_ASC_NODE":"293.4504","CENTER_NAME":"EARTH","MEAN_MOTION_DDOT":"0.0000000000000","DECAY_DATE":null,"BSTAR":"-0.00678130000000","MEAN_ANOMALY":"52.4733","RCS_SIZE":"MEDIUM","EPOCH":"2023-01-10T22:00:00.999936","REF_FRAME":"TEME","TLE_LINE2":"2 54838  42.9993 293.4504 0001499 251.1706  52.4733 15.77795370  1307","NORAD_CAT_ID":"54838","MEAN_ELEMENT_THEORY":"SGP4","REV_AT_EPOCH":"130","MEAN_MOTION":"15.77795370","MEAN_MOTION_DOT":"-0.01059943","EPHEMERIS_TYPE":"0","SITE":"AFETR"},{"DECAY_DATE":null,"BSTAR":"-0.00674630000000","CENTER_NAME":"EARTH","MEAN_MOTION_DDOT":"0.0000000000000","INCLINATION":"42.9996","ECCENTRICITY":"0.00014890","RA_OF_ASC_NODE":"293.4484","MEAN_MOTION":"15.77813753","EPHEMERIS_TYPE":"0","MEAN_MOTION_DOT":"-0.01055796","SITE":"AFETR","NORAD_CAT_ID":"54839","MEAN_ELEMENT_THEORY":"SGP4","REV_AT_EPOCH":"130","MEAN_ANOMALY":"41.9412","EPOCH":"2023-01-10T22:00:00.999936","RCS_SIZE":"MEDIUM","REF_FRAME":"TEME","TLE_LINE2":"2 54839  42.9996 293.4484 0001489 262.6805  41.9412 15.77813753  1307","TLE_LINE1":"1 54839U 22177V   23010.91667824 -.01055796  00000-0 -67463-2 0  9990","ARG_OF_PERICENTER":"262.6805","CLASSIFICATION_TYPE":"U","COUNTRY_CODE":"US","LAUNCH_DATE":"2022-12-28","OBJECT_ID":"2022-177V","SEMIMAJOR_AXIS":"6714.773","APOAPSIS":"337.638","OBJECT_NAME":"STARLINK-5110","GP_ID":"222723676","PERIOD":"91.266","FILE":"3739267","PERIAPSIS":"335.638","OBJECT_TYPE":"PAYLOAD","ELEMENT_SET_NO":"999","TIME_SYSTEM":"UTC"}];
